QIANFAN-73              
1 63159U 25046A   25198.54949778  .00000108  00000+0  14832-3 0  9998
2 63159  88.9846 335.2855 0014952 184.8255 175.2755 13.50955048 27409
QIANFAN-74              
1 63160U 25046B   25198.75535345  .00000114  00000+0  15856-3 0  9998
2 63160  88.9846 335.1529 0002059  97.0132 263.1253 13.50911914 27495
QIANFAN-75              
1 63161U 25046C   25198.74296274  .00000106  00000+0  14508-3 0  9997
2 63161  88.9847 335.3857 0016037 187.7483 172.3423 13.50955923 27364
QIANFAN-76              
1 63162U 25046D   25198.59050224 -.00000102  00000+0 -17696-3 0  9993
2 63162  88.9843 335.3828 0013574 188.0032 172.0904 13.50957895 27356
QIANFAN-77              
1 63163U 25046E   25198.53310488  .00000238  00000+0  16356-3 0  9999
2 63163  88.9845 334.6096 0015072 174.8914 185.2419 13.95995693 27775
QIANFAN-78              
1 63164U 25046F   25198.77995209  .00000134  00000+0  18843-3 0  9994
2 63164  88.9846 335.2288 0014886 190.1491 169.9362 13.50954784 27458
QIANFAN-79              
1 63165U 25046G   25198.73463101  .00000128  00000+0  17989-3 0  9995
2 63165  88.9850 335.3351 0014622 188.4213 171.6695 13.50956797 27406
QIANFAN-80              
1 63166U 25046H   25198.75121023  .00000103  00000+0  14109-3 0  9996
2 63166  88.9847 335.0445 0013474 192.1613 167.9215 13.50957525 27556
